start=new Date('2022-03-27T00:00:00.000Z').valueOf();
sats=[{"COUNTRY_CODE":"US","CLASSIFICATION_TYPE":"U","TIME_SYSTEM":"UTC","LAUNCH_DATE":"2022-03-03","OBJECT_ID":"2022-022S","TLE_LINE2":"2 51868  53.2178  28.7880 0001171  95.0565 292.3622 15.73036992  3711","APOAPSIS":"351.013","PERIAPSIS":"349.437","OBJECT_TYPE":"PAYLOAD","MEAN_ANOMALY":"292.3622","SEMIMAJOR_AXIS":"6728.360","EPHEMERIS_TYPE":"0","BSTAR":"-0.00002357200000","FILE":"3375650","TLE_LINE1":"1 51868U 22022S   22085.91667824 -.00003902  00000-0 -23572-4 0  9995","ARG_OF_PERICENTER":"95.0565","CENTER_NAME":"EARTH","RCS_SIZE":"LARGE","NORAD_CAT_ID":"51868","REV_AT_EPOCH":"371","DECAY_DATE":null,"PERIOD":"91.543","RA_OF_ASC_NODE":"28.7880","MEAN_MOTION_DOT":"-0.00003902","OBJECT_NAME":"STARLINK-3578","EPOCH":"2022-03-26T22:00:00.999936","GP_ID":"199783374","MEAN_MOTION_DDOT":"0.0000000000000","INCLINATION":"53.2178","SITE":"AFETR","REF_FRAME":"TEME","MEAN_MOTION":"15.73036992","ELEMENT_SET_NO":"999","ECCENTRICITY":"0.00011710","MEAN_ELEMENT_THEORY":"SGP4"},{"PERIAPSIS":"348.770","APOAPSIS":"350.655","OBJECT_TYPE":"PAYLOAD","MEAN_ANOMALY":"297.4873","SEMIMAJOR_AXIS":"6727.847","EPHEMERIS_TYPE":"0","FILE":"3375650","BSTAR":"-0.00006811700000","COUNTRY_CODE":"US","CLASSIFICATION_TYPE":"U","TIME_SYSTEM":"UTC","OBJECT_ID":"2022-022T","LAUNCH_DATE":"2022-03-03","TLE_LINE2":"2 51869  53.2189  28.7912 0001401  93.0426 297.4873 15.73216830  3704","MEAN_MOTION":"15.73216830","ELEMENT_SET_NO":"999","MEAN_ELEMENT_THEORY":"SGP4","ECCENTRICITY":"0.00014010","TLE_LINE1":"1 51869U 22022T   22085.91667824 -.00010175  00000-0 -68117-4 0  9990","ARG_OF_PERICENTER":"93.0426","CENTER_NAME":"EARTH","RCS_SIZE":"LARGE","NORAD_CAT_ID":"51869","REV_AT_EPOCH":"370","DECAY_DATE":null,"PERIOD":"91.532","MEAN_MOTION_DOT":"-0.00010175","RA_OF_ASC_NODE":"28.7912","OBJECT_NAME":"STARLINK-3588","GP_ID":"199783264","EPOCH":"2022-03-26T22:00:00.999936","MEAN_MOTION_DDOT":"0.0000000000000","INCLINATION":"53.2189","REF_FRAME":"TEME","SITE":"AFETR"},{"NORAD_CAT_ID":"51870","DECAY_DATE":null,"REV_AT_EPOCH":"370","RA_OF_ASC_NODE":"28.7930","PERIOD":"91.531","MEAN_MOTION_DOT":"-0.00044385","TLE_LINE1":"1 51870U 22022U   22085.91667824 -.00044385  00000-0 -31302-3 0  9997","ARG_OF_PERICENTER":"84.4239","CENTER_NAME":"EARTH","RCS_SIZE":"LARGE","INCLINATION":"53.2186","SITE":"AFETR","REF_FRAME":"TEME","OBJECT_NAME":"STARLINK-3591","GP_ID":"199783044","EPOCH":"2022-03-26T22:00:00.999936","MEAN_MOTION_DDOT":"0.0000000000000","MEAN_MOTION":"15.73236438","MEAN_ELEMENT_THEORY":"SGP4","ECCENTRICITY":"0.00010100","ELEMENT_SET_NO":"999","CLASSIFICATION_TYPE":"U","TIME_SYSTEM":"UTC","COUNTRY_CODE":"US","OBJECT_ID":"2022-022U","LAUNCH_DATE":"2022-03-03","TLE_LINE2":"2 51870  53.2186  28.7930 0001010  84.4239 304.8477 15.73236438  3704","PERIAPSIS":"348.977","APOAPSIS":"350.336","OBJECT_TYPE":"PAYLOAD","MEAN_ANOMALY":"304.8477","FILE":"3375650","BSTAR":"-0.00031302000000","SEMIMAJOR_AXIS":"6727.791","EPHEMERIS_TYPE":"0"},{"TLE_LINE2":"2 51871  53.2190  28.7901 0001081  74.0009 317.1874 15.73259118  3704","OBJECT_ID":"2022-022V","LAUNCH_DATE":"2022-03-03","TIME_SYSTEM":"UTC","CLASSIFICATION_TYPE":"U","COUNTRY_CODE":"US","FILE":"3375650","BSTAR":"-0.00056530000000","EPHEMERIS_TYPE":"0","SEMIMAJOR_AXIS":"6727.727","MEAN_ANOMALY":"317.1874","OBJECT_TYPE":"PAYLOAD","APOAPSIS":"350.319","PERIAPSIS":"348.864","REF_FRAME":"TEME","SITE":"AFETR","INCLINATION":"53.2190","MEAN_MOTION_DDOT":"0.0000000000000","EPOCH":"2022-03-26T22:00:00.999936","GP_ID":"199783154","OBJECT_NAME":"STARLINK-3567","MEAN_MOTION_DOT":"-0.00079408","PERIOD":"91.530","RA_OF_ASC_NODE":"28.7901","REV_AT_EPOCH":"370","DECAY_DATE":null,"NORAD_CAT_ID":"51871","RCS_SIZE":"LARGE","CENTER_NAME":"EARTH","ARG_OF_PERICENTER":"74.0009","TLE_LINE1":"1 51871U 22022V   22085.91667824 -.00079408  00000-0 -56530-3 0  9992","MEAN_ELEMENT_THEORY":"SGP4","ECCENTRICITY":"0.00010810","ELEMENT_SET_NO":"999","MEAN_MOTION":"15.73259118"},{"BSTAR":"0.00018810000000","FILE":"3375650","SEMIMAJOR_AXIS":"6727.958","EPHEMERIS_TYPE":"0","MEAN_ANOMALY":"319.7287","PERIAPSIS":"348.996","APOAPSIS":"350.649","OBJECT_TYPE":"PAYLOAD","OBJECT_ID":"2022-022W","LAUNCH_DATE":"2022-03-03","TLE_LINE2":"2 51872  53.2187  28.7920 0001228  70.1775 319.7287 15.73178072  3707","TIME_SYSTEM":"UTC","CLASSIFICATION_TYPE":"U","COUNTRY_CODE":"US","ECCENTRICITY":"0.00012280","MEAN_ELEMENT_THEORY":"SGP4","ELEMENT_SET_NO":"999","MEAN_MOTION":"15.73178072","INCLINATION":"53.2187","SITE":"AFETR","REF_FRAME":"TEME","MEAN_MOTION_DDOT":"0.0000000000000","OBJECT_NAME":"STARLINK-3554","GP_ID":"199783484","EPOCH":"2022-03-26T22:00:00.999936","DECAY_DATE":null,"REV_AT_EPOCH":"370","RA_OF_ASC_NODE":"28.7920","PERIOD":"91.534","MEAN_MOTION_DOT":"0.00025835","NORAD_CAT_ID":"51872","CENTER_NAME":"EARTH","RCS_SIZE":"LARGE","TLE_LINE1":"1 51872U 22022W   22085.91667824  .00025835  00000-0  18810-3 0  9995","ARG_OF_PERICENTER":"70.1775"},{"INCLINATION":"53.2183","REF_FRAME":"TEME","SITE":"AFETR","MEAN_MOTION_DDOT":"0.0000000000000","OBJECT_NAME":"STARLINK-3582","EPOCH":"2022-03-26T22:00:00.999936","GP_ID":"199782935","REV_AT_EPOCH":"370","DECAY_DATE":null,"RA_OF_ASC_NODE":"28.7861","PERIOD":"91.534","MEAN_MOTION_DOT":"0.00015963","NORAD_CAT_ID":"51873","CENTER_NAME":"EARTH","RCS_SIZE":"MEDIUM","TLE_LINE1":"1 51873U 22022X   22085.91667824  .00015963  00000-0  11799-3 0  9996","ARG_OF_PERICENTER":"78.6228","ECCENTRICITY":"0.00009980","MEAN_ELEMENT_THEORY":"SGP4","ELEMENT_SET_NO":"999","MEAN_MOTION":"15.73188873","LAUNCH_DATE":"2022-03-03","OBJECT_ID":"2022-022X","TLE_LINE2":"2 51873  53.2183  28.7861 0000998  78.6228 314.4934 15.73188873  3708","TIME_SYSTEM":"UTC","CLASSIFICATION_TYPE":"U","COUNTRY_CODE":"US","BSTAR":"0.00011799000000","FILE":"3375650","SEMIMAJOR_AXIS":"6727.927","EPHEMERIS_TYPE":"0","MEAN_ANOMALY":"314.4934","APOAPSIS":"350.463","PERIAPSIS":"349.120","OBJECT_TYPE":"PAYLOAD"},{"ELEMENT_SET_NO":"999","ECCENTRICITY":"0.00012260","MEAN_ELEMENT_THEORY":"SGP4","MEAN_MOTION":"15.73215547","OBJECT_NAME":"STARLINK-3574","GP_ID":"199782716","EPOCH":"2022-03-26T22:00:00.999936","MEAN_MOTION_DDOT":"0.0000000000000","INCLINATION":"53.2185","SITE":"AFETR","REF_FRAME":"TEME","TLE_LINE1":"1 51874U 22022Y   22085.91667824 -.00004787  00000-0 -29690-4 0  9991","ARG_OF_PERICENTER":"75.6240","CENTER_NAME":"EARTH","RCS_SIZE":"LARGE","NORAD_CAT_ID":"51874","REV_AT_EPOCH":"371","DECAY_DATE":null,"MEAN_MOTION_DOT":"-0.00004787","PERIOD":"91.532","RA_OF_ASC_NODE":"28.7880","SEMIMAJOR_AXIS":"6727.851","EPHEMERIS_TYPE":"0","BSTAR":"-0.00002969000000","FILE":"3375650","PERIAPSIS":"348.891","APOAPSIS":"350.541","OBJECT_TYPE":"PAYLOAD","MEAN_ANOMALY":"316.2033","OBJECT_ID":"2022-022Y","LAUNCH_DATE":"2022-03-03","TLE_LINE2":"2 51874  53.2185  28.7880 0001226  75.6240 316.2033 15.73215547  3718","COUNTRY_CODE":"US","CLASSIFICATION_TYPE":"U","TIME_SYSTEM":"UTC"},{"CENTER_NAME":"EARTH","RCS_SIZE":"LARGE","TLE_LINE1":"1 51875U 22022Z   22085.91667824  .00019595  00000-0  14375-3 0  9996","ARG_OF_PERICENTER":"75.7345","DECAY_DATE":null,"REV_AT_EPOCH":"370","MEAN_MOTION_DOT":"0.00019595","PERIOD":"91.534","RA_OF_ASC_NODE":"28.7837","NORAD_CAT_ID":"51875","MEAN_MOTION_DDOT":"0.0000000000000","OBJECT_NAME":"STARLINK-3585","GP_ID":"199782826","EPOCH":"2022-03-26T22:00:00.999936","INCLINATION":"53.2191","SITE":"AFETR","REF_FRAME":"TEME","MEAN_MOTION":"15.73192110","ELEMENT_SET_NO":"999","ECCENTRICITY":"0.00011040","MEAN_ELEMENT_THEORY":"SGP4","COUNTRY_CODE":"US","TIME_SYSTEM":"UTC","CLASSIFICATION_TYPE":"U","OBJECT_ID":"2022-022Z","LAUNCH_DATE":"2022-03-03","TLE_LINE2":"2 51875  53.2191  28.7837 0001104  75.7345 318.6252 15.73192110  3708","MEAN_ANOMALY":"318.6252","PERIAPSIS":"349.040","APOAPSIS":"350.525","OBJECT_TYPE":"PAYLOAD","SEMIMAJOR_AXIS":"6727.918","EPHEMERIS_TYPE":"0","FILE":"3375650","BSTAR":"0.00014375000000"},{"ELEMENT_SET_NO":"999","ECCENTRICITY":"0.00012110","MEAN_ELEMENT_THEORY":"SGP4","MEAN_MOTION":"15.73248774","MEAN_MOTION_DDOT":"0.0000000000000","OBJECT_NAME":"STARLINK-3583","EPOCH":"2022-03-26T22:00:00.999936","GP_ID":"199783375","INCLINATION":"53.2188","REF_FRAME":"TEME","SITE":"AFETR","CENTER_NAME":"EARTH","RCS_SIZE":"LARGE","TLE_LINE1":"1 51876U 22022AA  22085.91667824 -.00081715  00000-0 -58226-3 0  9995","ARG_OF_PERICENTER":"79.2996","DECAY_DATE":null,"REV_AT_EPOCH":"370","RA_OF_ASC_NODE":"28.7870","PERIOD":"91.530","MEAN_MOTION_DOT":"-0.00081715","NORAD_CAT_ID":"51876","SEMIMAJOR_AXIS":"6727.756","EPHEMERIS_TYPE":"0","BSTAR":"-0.00058226000000","FILE":"3375650","MEAN_ANOMALY":"313.1813","APOAPSIS":"350.436","PERIAPSIS":"348.806","OBJECT_TYPE":"PAYLOAD","OBJECT_ID":"2022-022AA","LAUNCH_DATE":"2022-03-03","TLE_LINE2":"2 51876  53.2188  28.7870 0001211  79.2996 313.1813 15.73248774  3703","COUNTRY_CODE":"US","TIME_SYSTEM":"UTC","CLASSIFICATION_TYPE":"U"},{"BSTAR":"-0.00065616000000","FILE":"3375650","EPHEMERIS_TYPE":"0","SEMIMAJOR_AXIS":"6727.718","MEAN_ANOMALY":"330.6322","OBJECT_TYPE":"PAYLOAD","PERIAPSIS":"348.825","APOAPSIS":"350.340","TLE_LINE2":"2 51877  53.2190  28.7810 0001126  65.0851 330.6322 15.73262185  3700","OBJECT_ID":"2022-022AB","LAUNCH_DATE":"2022-03-03","TIME_SYSTEM":"UTC","CLASSIFICATION_TYPE":"U","COUNTRY_CODE":"US","MEAN_ELEMENT_THEORY":"SGP4","ECCENTRICITY":"0.00011260","ELEMENT_SET_NO":"999","MEAN_MOTION":"15.73262185","REF_FRAME":"TEME","SITE":"AFETR","INCLINATION":"53.2190","MEAN_MOTION_DDOT":"0.0000000000000","EPOCH":"2022-03-26T22:00:00.999936","GP_ID":"199783265","OBJECT_NAME":"STARLINK-3556","RA_OF_ASC_NODE":"28.7810","PERIOD":"91.530","MEAN_MOTION_DOT":"-0.00091949","DECAY_DATE":null,"REV_AT_EPOCH":"370","NORAD_CAT_ID":"51877","RCS_SIZE":"LARGE","CENTER_NAME":"EARTH","ARG_OF_PERICENTER":"65.0851","TLE_LINE1":"1 51877U 22022AB  22085.91667824 -.00091949  00000-0 -65616-3 0  9997"}];
